name,longitude,latitude,city,country,description,imageUrl,hotelWebsite,letJackHelp
Hotel Bennett,-79.93680129,32.7872929,Charleston,USA,"A trendy haven in Charleston, where millennials flock for stylish vibes and modern luxuries. Always in the know, always in style.",https://images.squarespace-cdn.com/content/v1/6548250d80354a7fbf64348a/13768ce8-c7f6-432a-99f4-0347993312b5/download+%281%29.jpeg?format=1000w,hotelbennett.com,https://www.jsltravelagent.com/clientintake
Zero George,22.4559413,-33.9492351,Charleston,USA,"Gray brick charm meets old-school vibes, with a touch of elegance. Rent a bike, and enjoy the perfect mix of history and relaxation.",https://images.squarespace-cdn.com/content/v1/6548250d80354a7fbf64348a/871fbd4b-b3ce-43be-b884-fac391f23284/19783539.jpg?format=750w,zerogeorge.com,https://www.jsltravelagent.com/clientintake
The Restoration,0.1922391,51.2711503,Charleston,USA,"A signature Charleston icon with its bold, light-blue entrance. This spot captures Southern elegance and hospitality at its finest.",https://images.squarespace-cdn.com/content/v1/6548250d80354a7fbf64348a/3a60c5e2-392a-4b57-997e-1d34834e6c9b/181a9c3a.jpeg?format=1000w,therestorationhotel.com,https://www.jsltravelagent.com/clientintake
The Loutrel,-79.9399309,32.7884363,Charleston,USA,"A hidden gem Jack Logan stumbled uponÑperfectly curated and tucked into the right corner of Charleston. Gorgeous, unique, and truly one of a kind.",https://images.squarespace-cdn.com/content/v1/6548250d80354a7fbf64348a/1b7f310f-077b-4c00-a0a8-384c87cdeb5e/1327601.jpg?format=750w,theloutrel.com,https://www.jsltravelagent.com/clientintake
W Nashville,-86.8463888,36.158946,Nashville,USA,"This hot spot in the Gulch is where architecture meets fun. A trendy, happening hotel thatÕs always buzzing.",https://images.squarespace-cdn.com/content/v1/6548250d80354a7fbf64348a/a598f622-ebf0-4b2d-93d1-d16c0ca89055/W-Nashville_Exterior_%C2%A9Michael-Kleinberg.jpeg?format=1000w,marriott.com/en-us/hotels/bnaaw-w-nashville,https://www.jsltravelagent.com/clientintake
The Thompson Nashville,-86.78408384,36.15244515,Nashville,USA,"A personal favoriteÑthis chic Nashville stay offers stunning views, especially from a corner suite. A perfect city retreat.",https://images.squarespace-cdn.com/content/v1/6548250d80354a7fbf64348a/39dca9c1-bd2c-46d2-a2f2-21432a5ada9f/13855fdadf892fe9d16536e06c80babf.jpg?format=750w,hyatt.com/en-US/hotel/tennessee/thompson-nashville/bnata,https://www.jsltravelagent.com/clientintake
The Grand Hotel Golf Resort & Spa,-87.9347164,30.48460035,Point Clear,USA,"An Alabama getaway filled with southern charm, activities galore, and a relaxed luxury vibe. Perfect for that big, luxury Southern retreat.",https://images.squarespace-cdn.com/content/v1/6548250d80354a7fbf64348a/63df2ac7-0507-4f5e-92f5-02e6648b1409/1.jpg?format=1000w,grand1847.com,https://www.jsltravelagent.com/clientintake
Montage Deer Valley,-111.511548,40.6159841,Park City,USA,Snow-covered elegance meets cozy luxury in this Deer Valley treasure. Shop their cozy apparel and bask in wintery goodness.,https://images.squarespace-cdn.com/content/v1/6548250d80354a7fbf64348a/1a60db81-0f3c-448f-8d27-052077c56b62/1920-x-1200-MDV-Winter-Signature-1920x1080.jpg?format=1000w,montagehotels.com/deervalley,https://www.jsltravelagent.com/clientintake
Amangiri,-111.6374209,37.0369405,Canyon Point,USA,"World-renowned and jaw-dropping, with scenery that will leave you breathless in the Utah desert. This is where nature and luxury collide.",https://images.squarespace-cdn.com/content/v1/6548250d80354a7fbf64348a/65d0cef5-25ea-40b5-903c-d64f71d4375d/210204_AmanHero_Landscape_Amangiri.jpeg?format=1000w,aman.com/resorts/amangiri,https://www.jsltravelagent.com/clientintake
L'Auberge de Sedona,-111.7596366,34.8687,Sedona,USA,A luxurious desert escape with all the fancy touches you expect. Desert chic at its finest.,https://images.squarespace-cdn.com/content/v1/6548250d80354a7fbf64348a/bf1755a1-e5fe-4bfd-a838-edafb44e33da/cocktail-hour_51_157978_v2.jpeg?format=750w,lauberge.com/sedona,https://www.jsltravelagent.com/clientintake
Enchantment Resort,-111.8535764,34.9143134,Sedona,USA,"A massive resort complex tucked into the stunning desert landscape. Enormous, beautiful, and impossible to forget.",https://images.squarespace-cdn.com/content/v1/6548250d80354a7fbf64348a/dd64198f-d07d-46a2-ae6e-14545d11afd3/enchantment-resort-pool.jpg?format=750w,enchantmentresort.com,https://www.jsltravelagent.com/clientintake
The Langham Chicago,-87.6275117,41.8884239,Chicago,USA,"A bright, naturally lit gem in ChicagoÕs luxury hotel scene. Perfect location, perfect standardÑjust what youÕd expect from a world-class stay.",https://images.squarespace-cdn.com/content/v1/6548250d80354a7fbf64348a/1c954e88-4fd6-4816-862e-84974507b5f3/the-langham-chicago.jpg?format=750w,langhamhotels.com/en/the-langham/chicago,https://www.jsltravelagent.com/clientintake
The Joule Dallas,-96.79840171,32.78060805,Dallas,USA,"DallasÕ most unique stay with a standout pool and prime access to Highland Park. Trendy, chic, and full of character.",https://images.squarespace-cdn.com/content/v1/6548250d80354a7fbf64348a/50336476-f36b-4325-889c-838856bef9ff/1030176.jpg?format=750w,thejouledallas.com,https://www.jsltravelagent.com/clientintake
Four Seasons Seattle,-122.3391602,47.6073757,Seattle,USA,Classic Four Seasons luxury with a cozy twist in the rainy city of Seattle. Expect everything that defines this iconic brand.,https://images.squarespace-cdn.com/content/v1/6548250d80354a7fbf64348a/d2a19256-3909-48ba-9340-d7312525012c/224931680.jpg?format=750w,fourseasons.com/seattle,https://www.jsltravelagent.com/clientintake
Four Seasons Resort Rancho Encantado,-105.9221556,35.79959455,Santa Fe,USA,"A peaceful New Mexico retreat with ranch vibes, mostly catering to an older crowd. Calm, relaxing, and beautifully scenic.",https://images.squarespace-cdn.com/content/v1/6548250d80354a7fbf64348a/5577c9e1-d4a3-4ab7-bff5-95bec752c18e/cq5dam.web.press.722.keepaspectratio.jpeg?format=1000w,fourseasons.com/santafe,https://www.jsltravelagent.com/clientintake
Blackberry Mountain,-82.2086688,37.5793118,Walland,USA,"Fast becoming the talk of the luxury world with its stunning Smoky Mountain views. Popular, peaceful, and perfectly luxurious.",https://images.squarespace-cdn.com/content/v1/6548250d80354a7fbf64348a/85486d91-9707-48f6-a836-a34a444cec6e/19BLACKBERRY-slide-N0RN-superJumbo.jpg?format=750w,blackberrymountain.com,https://www.jsltravelagent.com/clientintake
"The Mark, New York City",-73.96325936,40.77532995,New York City,USA,"An icon in New York City, home to Met Gala celebrities and a sleek black-and-white aesthetic. A classic in every way.",https://images.squarespace-cdn.com/content/v1/6548250d80354a7fbf64348a/d5e19e4f-9918-4693-a4f2-463a44705b6b/The-Mark---Lobby-VIew-1-New---Francesco-Tonelli.jpeg?format=1000w,themarkhotel.com,https://www.jsltravelagent.com/clientintake
"The Palace, New York City",-73.944628,40.7254611,New York City,USA,Midtown luxury thatÕs been featured in Gossip GirlÑclassic NYC glamour. Always a solid choice for a grand stay.,https://images.squarespace-cdn.com/content/v1/6548250d80354a7fbf64348a/3c737de6-b354-4976-8fa1-8ea203e192eb/Lotte-New-York-Palace_9877.jpg?format=750w,newyorkpalace.com,https://www.jsltravelagent.com/clientintake
"1 Hotel Central Park, New York City",-73.97650717,40.7647093,New York City,USA,"Cozy, yet elegant with stunning views of Central Park. A smaller, more intimate vibe thatÕs big on charm.",https://images.squarespace-cdn.com/content/v1/6548250d80354a7fbf64348a/f5564c39-3082-400d-8a5a-f9bf5334e0d6/53049771.jpg?format=750w,1hotels.com/central-park,https://www.jsltravelagent.com/clientintake
"Soho Grand Hotel, New York City",-74.0043561,40.7220039,New York City,USA,"Golden, luxe, and perfectly positioned in the heart of the action. The nightlux scene right by CarboneÑcanÕt beat that.",https://images.squarespace-cdn.com/content/v1/6548250d80354a7fbf64348a/a2706c05-6ec8-43eb-a798-561e80209913/31456556.jpg?format=750w,sohogrand.com,https://www.jsltravelagent.com/clientintake
"The Beekman, New York City",-73.96119912,40.76157565,New York City,USA,"The essence of New York City sophistication and luxury. Known for its history, and letÕs not forget Anna DelveyÕs infamous stay.",https://images.squarespace-cdn.com/content/v1/6548250d80354a7fbf64348a/cd1d6a63-7e4c-4a6c-94e7-ff80afbd8ee0/18205c758b1a.jpg?format=750w,thebeekman.com,https://www.jsltravelagent.com/clientintake
"Baccarat Hotel, New York City",-73.97736389,40.7608074,New York City,USA,"Dripping in diamonds and Baccarat jewels, this is next-level luxury. A hotel that dazzles in every way.",https://images.squarespace-cdn.com/content/v1/6548250d80354a7fbf64348a/0999f764-df13-4fd8-b726-e9f15451e482/baccarat_hotel_grand_salon_2-2015.jpeg?format=1500w,baccarathotels.com,https://www.jsltravelagent.com/clientintake
"Times Square Edition, New York City",-74.0060152,40.7127281,New York City,USA,"Step into a sleek, black-and-white world high above the chaos of Times Square. An ultra-modern escape from the neon lights below.",https://images.squarespace-cdn.com/content/v1/6548250d80354a7fbf64348a/5220a119-a79c-44ae-8821-067d20ec68ec/437822270.jpg?format=750w,editionhotels.com/new-york,https://www.jsltravelagent.com/clientintake
"Gurney's, Montauk, New York",-71.99323058,41.0152047,Montauk,USA,"Chic Hamptons vibes meet surf lodge cool. The ultimate spot for a stylish beach escape, a little slice of Montauk heaven.",https://images.squarespace-cdn.com/content/v1/6548250d80354a7fbf64348a/bb5bb404-f6d4-42af-9f49-b54b904184fd/Gurney%E2%80%99s+Montauk_Beach+Club+Cabanas.jpeg?format=1000w,gurneysresorts.com/montauk,https://www.jsltravelagent.com/clientintake
"The Roundtree, Amagansett",-72.1437716,40.9736557,Amagansett,USA,The closest you can have to a Hamptons house without owning one. This timelessly luxe earthy property and itÕs service makes you feel right at home. Amenities galore.,https://images.squarespace-cdn.com/content/v1/6548250d80354a7fbf64348a/f01d80cd-ba54-4097-b049-6b4d18607038/exterior-backyard-beach-house-rountree-amagansett-BEACHHSEAMGNST0622-2b5020d3eb19474cb418079dbf3ac0fb.jpg?format=750w,theroundtreehotels.com,https://www.jsltravelagent.com/clientintake
"Sunset Beach, Shelter Island",-72.36564256,41.07354775,Shelter Island,USA,"Yellow-and-white striped perfection right on Shelter IslandÕs quiet beach. Cute, lively, and perfectly positioned for beachside fun.",https://images.squarespace-cdn.com/content/v1/6548250d80354a7fbf64348a/001bded3-7ca0-4a55-bff1-3ef30b2d0424/SunsetBeach_1.jpg?format=750w,sunsetbeachli.com,https://www.jsltravelagent.com/clientintake
"The Pridwin, Shelter Island",-72.37533534,41.06964845,Shelter Island,USA,"A relaxed counterpart to Sunset Beach with tennis courts, docks, and laid-back Shelter Island charm.",https://images.squarespace-cdn.com/content/v1/6548250d80354a7fbf64348a/73851a87-598f-42df-b6c6-8ee1134480f5/the-pridwin-hotel.jpg?format=750w,pridwin.com,https://www.jsltravelagent.com/clientintake
"CrowÕs Nest, Montauk",-71.91305136,41.0471991,Montauk,USA,"A hotspot for wealthy New Yorkers, this adorable hideaway offers stunning villas but sits far out in Montauk. Cute and secluded with a luxe edge.",https://images.squarespace-cdn.com/content/v1/6548250d80354a7fbf64348a/7c9aa05f-be9a-4ace-a879-41b77761b19e/189bf5b7.jpeg?format=1000w,crowsnestmontauk.com,https://www.jsltravelagent.com/clientintake
"1 Hotel Brooklyn Bridge, Brooklyn",-73.99555185,40.7022571,Brooklyn,USA,"A luxurious escape from the city with incredible views of the Brooklyn Bridge. Spa amenities galore, perfect for a relaxing city break.",https://images.squarespace-cdn.com/content/v1/6548250d80354a7fbf64348a/f9bdec90-d9f5-4810-86f1-fd7cc4fce15c/53049771.jpg?format=750w,1hotels.com/brooklyn-bridge,https://www.jsltravelagent.com/clientintake
"Delamar Greenwich, Connecticut",-73.6284598,41.0264862,Greenwich,USA,"Coastal New England luxury right on the harbor with an amazing brunch spot. Classic, elegant, and perfect for a New England escape.",https://images.squarespace-cdn.com/content/v1/6548250d80354a7fbf64348a/1f5090f0-9602-4d6d-ae1c-364b191c6fa3/delamargreenwich-01-homepage-01-herouvp-01-hero-image-64135ef737125-64221566479fc.jpg?format=1000w,thedelamar.com/greenwich,https://www.jsltravelagent.com/clientintake
"Delamar Southport, Connecticut",-73.288343,41.1352221,Southport,USA,"Much like its Greenwich counterpart, this hotel brings the New England charmÑminus the water views but packed with coastal luxury.",https://images.squarespace-cdn.com/content/v1/6548250d80354a7fbf64348a/43dc66bf-3c1a-4cdf-b524-b18cd794275a/delamargreenwichharborhotel-ourhotel-ourstory-646b85e020671.jpeg?format=750w,thedelamar.com/southport,https://www.jsltravelagent.com/clientintake
"The Breakers, Palm Beach, Florida",-80.03380031,26.71372665,Palm Beach,USA,"The Palm Beach icon with endless amenitiesÑeverything from nail salons to dry cleaning, all right on the beach. A must-stay for anyone visiting.",https://images.squarespace-cdn.com/content/v1/6548250d80354a7fbf64348a/a0f5cedc-eff9-452f-ace2-259dcb0f8732/thebreakers_website_hero_new.jpg?format=1500w,thebreakers.com,https://www.jsltravelagent.com/clientintake
"Four Seasons Surf Club, Miami, Florida",-80.12116611,25.8773181,Miami,USA,Beachfront luxe with the signature Four Seasons touch. Known for its world-class service and stunning viewsÑtruly a standout in Miami.,https://images.squarespace-cdn.com/content/v1/6548250d80354a7fbf64348a/e207a5fe-b6c7-4465-bbb5-b13198f5a5dc/four-seasons-surf-club-1400x580.jpg?format=1500w,fourseasons.com/surfside,https://www.jsltravelagent.com/clientintake
"The Setai, Miami, Florida",-80.1282514,25.7955306,Miami,USA,An Asian-inspired luxury gem in Miami Beach. Known for its over-the-top concierge service and ultimate Miami vibes.,https://images.squarespace-cdn.com/content/v1/6548250d80354a7fbf64348a/e76a3223-1c1e-41af-be4b-8062936490f1/04b576bd-170408fb22a.jpg?format=1000w,thesetaihotel.com,https://www.jsltravelagent.com/clientintake
"Faena, Miami, Florida",-80.12313906,25.80737845,Miami,USA,"A vibrant, red-themed beauty just steps away from South Beach attractions. Luxe, artsy, and oh-so-cool.",https://images.squarespace-cdn.com/content/v1/6548250d80354a7fbf64348a/cd710303-5bd0-4f7d-915e-d1f25aaaa447/Faena_Pool_Close+Up.jpg?format=750w,faena.com/miami-beach,https://www.jsltravelagent.com/clientintake
"Kimpton EPIC Hotel, Miami, Florida",-80.18913,25.7706352,Miami,USA,A budget-friendly Miami stay with unbeatable views of the Intercoastal. Perfect for staycations and a laid-back Miami getaway.,https://images.squarespace-cdn.com/content/v1/6548250d80354a7fbf64348a/4c35457b-d463-4d47-a61d-9ac7475831c0/water-view-room-king.jpg?format=750w,epichotel.com,https://www.jsltravelagent.com/clientintake
"Montage Laguna Beach, California",-117.7571244,33.51472775,Laguna Beach,USA,"An oceanfront dream with fire pits, sweeping views, and top-notch staff. Everything about this place screams luxury and relaxation.",https://images.squarespace-cdn.com/content/v1/6548250d80354a7fbf64348a/7bfad2be-95c8-496b-960a-309bdc65dfb3/exterior-view.jpg?format=1000w,montagehotels.com/lagunabeach,https://www.jsltravelagent.com/clientintake
"Rosewood Miramar Beach, Montecito, California",-119.628391,34.4205946,Montecito,USA,"A favorite of Kourtney Kardashian, this California beach escape offers spacious rooms and laid-back luxury. The perfect spot for a relaxing getaway.",https://images.squarespace-cdn.com/content/v1/6548250d80354a7fbf64348a/7429a3df-9d18-49f8-8218-a9068831c86d/RosewoodMiramarBeach-2020-1.jpeg?format=1000w,rosewoodhotels.com/en/miramar-beach-montecito,https://www.jsltravelagent.com/clientintake
"Beverly Hills Hotel, Los Angeles, California",-118.4137967,34.08171455,Los Angeles,USA,An iconic LA experience. This legendary hotel offers a glimpse into Hollywood's golden age while delivering world-class luxury.,https://images.squarespace-cdn.com/content/v1/6548250d80354a7fbf64348a/4cad6749-6b42-49cf-9adc-76fca2882b47/325188952.jpg?format=750w,dorchestercollection.com/en/los-angeles/the-beverly-hills-hotel,https://www.jsltravelagent.com/clientintake
"Chateau Marmont, Los Angeles, California",-118.3684049,34.09824975,Los Angeles,USA,The pinnacle of LA luxury with jaw-dropping rooms and breathtaking views of the city. A stay here is pure opulence.,https://images.squarespace-cdn.com/content/v1/6548250d80354a7fbf64348a/79897614-0fd5-4d73-a429-e9299ede1ee1/exterior.jpg?format=1000w,chateaumarmont.com,https://www.jsltravelagent.com/clientintake
"Nobu Ryokan, Malibu, California",-118.6712245,34.0391107,Malibu,USA,"A beachfront Malibu gem, this luxurious stay offers everything you could want for a chic and serene escape.",https://images.squarespace-cdn.com/content/v1/6548250d80354a7fbf64348a/9db2b7ef-7dae-44c4-93b6-ef9762d22724/beachfront-room.jpg?format=750w,nobuhotels.com/malibu,https://www.jsltravelagent.com/clientintake
"Topping Rose House, Bridgehampton, New York",-72.30025919,40.93819745,Bridgehampton,USA,"Known for its central Bridgehampton location, this Hamptons gem boasts stunning lawns and impeccable service. A classic luxury retreat.",https://images.squarespace-cdn.com/content/v1/6548250d80354a7fbf64348a/2880a999-3cf1-40ac-8b70-26ea7b2d34cb/Topping_Rose_House016__P.jpg?format=750w,toppingrosehouse.com,https://www.jsltravelagent.com/clientintake
"The Loren, Bermuda",-64.7098401,32.3219355,Bermuda,Bermuda,"Owned by an awesome, down-to-earth female hotelier, this boutique hotel offers cute rooms and beachy luxury on BermudaÕs pink sands.",https://images.squarespace-cdn.com/content/v1/6548250d80354a7fbf64348a/e847e695-1d72-4290-a01a-6e9d8ae07233/the-loren-at-pink-beach.jpg?format=750w,thelorenhotel.com/bermuda,https://www.jsltravelagent.com/clientintake
Rosewood Bermuda,-81.273311,29.827847,Bermuda,Bermuda,"Another Bermuda treasure, this one features the signature Rosewood standards and a breathtaking pink sand beach. Perfect for a dreamy getaway.",https://images.squarespace-cdn.com/content/v1/6548250d80354a7fbf64348a/17949135-f02e-461d-b39e-90e38082488f/Screen_Shot_2018-08-20_at_4.03.49_PM.jpg?format=750w,rosewoodhotels.com/en/bermuda,https://www.jsltravelagent.com/clientintake
"Cliff House, Maine",-70.2211587,43.6328609,Cape Neddick,USA,"With jaw-dropping views, this Maine escape combines outdoorsy charm with luxurious relaxation. The ultimate nature retreat.",https://images.squarespace-cdn.com/content/v1/6548250d80354a7fbf64348a/a09e8ea1-6e2a-430b-ac4e-0c6da292b676/f4eedb7b.jpeg?format=750w,cliffhousemaine.com,https://www.jsltravelagent.com/clientintake
"Newport Harbor Hotel, Rhode Island",-71.31672447,41.48760675,Newport,USA,"Set on its own island with easy access to Newport town, this hotel is as convenient as it is luxurious. Perfect for exploring Newport.",https://images.squarespace-cdn.com/content/v1/6548250d80354a7fbf64348a/0101403d-cec1-4d60-8251-03bbf2c93303/Experiences_drone_property_shot.jpg?format=1000w,newporthotel.com,https://www.jsltravelagent.com/clientintake
"White Elephant, Nantucket, Massachusetts",-70.098951,41.287345,Nantucket,USA,"A classic, boutique Nantucket stay that oozes aesthetic charm. Known for its Palm Beach sister hotel, itÕs a New England favorite.",https://images.squarespace-cdn.com/content/v1/6548250d80354a7fbf64348a/24951536-12ba-467e-81bb-973150a54cd1/whiteelephantnantucket-home-hero.jpeg?format=750w,whiteelephantnantucket.com,https://www.jsltravelagent.com/clientintake
"Porches Inn at MASS MoCA, Massachusetts",-73.11603845,42.702948,North Adams,USA,"This cute, sleepy cottage hotel in the Berkshires offers incredible service and is just across from the MASS MoCA museum. A unique little gem.",https://images.squarespace-cdn.com/content/v1/6548250d80354a7fbf64348a/a75fdcf3-4632-49bf-9509-fe24b13b8219/Side-Angle-Shot1_ESCAPE-BROOKLYN.jpg?format=750w,porches.com,https://www.jsltravelagent.com/clientintake
"Stowe Mountain Resort, Vermont",-72.79368434,44.52976755,Stowe,USA,"A snowy retreat. Hit the slopes and come back to crepes, hot cocoa, spacious rooms, and a huge swimming pool and hot tub map.",https://images.squarespace-cdn.com/content/v1/6548250d80354a7fbf64348a/28ca7c9e-25cd-4b20-93d2-5283f3a48a7c/20190219_ST_schloff_020_Medium-Hero.jpeg?format=1000w,viceroyhotelsandresorts.com/stowe,https://www.jsltravelagent.com/clientintake
"The Pearl, Rosemary Beach, Florida",-86.015565,30.2802919,Rosemary Beach,USA,"Set on pristine white sands along Highway 38, this charming beachside hotel has great service, a lively bar, and a prime in-town location.",https://images.squarespace-cdn.com/content/v1/6548250d80354a7fbf64348a/5b8c3830-0580-496c-9bc1-16e4e42b4eda/the-pearl-hotel.jpg?format=750w,thepearlrb.com,https://www.jsltravelagent.com/clientintake
"Omni Amelia Island, Florida",-81.44342604,30.5547917,Amelia Island,USA,"Private, remote, and right on the beachÑthis luxurious resort offers pure relaxation on FloridaÕs coast.",https://images.squarespace-cdn.com/content/v1/6548250d80354a7fbf64348a/1a8e8863-b068-4e35-9bec-d37213a53dba/aipvil_1_2880x1870.jpeg?format=750w,omnihotels.com/hotels/amelia-island,https://www.jsltravelagent.com/clientintake
"Ritz-Carlton Fort Lauderdale, Florida",-80.10475177,26.1228857,Fort Lauderdale,USA,Classic Ritz-Carlton luxury on Fort Lauderdale Beach. Enough said.,https://images.squarespace-cdn.com/content/v1/6548250d80354a7fbf64348a/7686777c-78f5-4cf5-ad9e-d265a3a7aebf/mobile_slideshow_img_20150227173527.jpg?format=1000w,ritzcarlton.com/en/hotels/florida/fort-lauderdale,https://www.jsltravelagent.com/clientintake
"Ritz-Carlton Amelia Island, Florida",-81.44471468,30.59420645,Amelia Island,USA,"Another Florida favoriteÑluxury, seclusion, and unbeatable beach vibes.",https://images.squarespace-cdn.com/content/v1/6548250d80354a7fbf64348a/8adae33e-aeb1-4f4d-87d3-2afa3b998da5/resort-aerial-view.jpg?format=750w,ritzcarlton.com/en/hotels/florida/amelia-island,https://www.jsltravelagent.com/clientintake
"The Ocean Club, A Four Seasons Resort, Bahamas",-77.3063342,25.0833552,Paradise Island,USA,A Four Seasons masterpiece where youÕll never need to leave the resort. ItÕs everything you could want in a Bahamian escape.,https://images.squarespace-cdn.com/content/v1/6548250d80354a7fbf64348a/3e034822-b837-4803-a461-aaa5da9bd2d9/leonardo-3559427-161277759-676149.jpg?format=1000w,fourseasons.com/oceanclub,https://www.jsltravelagent.com/clientintake
"Eden Roc Cap Cana, Dominican Republic",-68.3830103,18.5044392,Punta Cana,Dominican Republic,A gated beachfront villa community where families and friends can relax in style. Expect stellar service and stunning ocean views.,https://images.squarespace-cdn.com/content/v1/6548250d80354a7fbf64348a/453a056f-f986-4147-89b9-5897fc16d3d1/175471343.jpg?format=1000w,edenroccapcana.com,https://www.jsltravelagent.com/clientintake
"Round Hill Hotel & Villas, Jamaica",-77.9217357,18.4724603,Montego Bay,Jamaica,"A hillside retreat in Jamaica where billionaires flock for privacy, great golf, and even better restaurants.",https://images.squarespace-cdn.com/content/v1/6548250d80354a7fbf64348a/a52c237b-7aba-45b5-a24e-954137e4316d/001504-01-Drone_2022_11_DJI_0387-at+Round+Hill+Hotel+and+Villas.jpg?format=1000w,roundhill.com,https://www.jsltravelagent.com/clientintake
"Casa de Campo, Dominican Republic",-68.9232404,18.4163009,La Romana,Dominican Republic,"A household name for villa rentals, this resort operates like its own cityÑbars, nightclubs, beaches, and every amenity imaginable.",https://images.squarespace-cdn.com/content/v1/6548250d80354a7fbf64348a/6cf24fa2-b602-429e-8878-79e325b9203d/Casa-de-Campo-Resort-%26-Villas__2018_36-Villa3.jpeg?format=1500w,casadecampo.com.do,https://www.jsltravelagent.com/clientintake
"Tryall Club, Jamaica",-77.9217357,18.4724603,Montego Bay,Jamaica,A luxurious villa community with top-notch golfing and water sports. Private staff and beachfront restaurants add to the magic.,https://images.squarespace-cdn.com/content/v1/6548250d80354a7fbf64348a/ec488cff-88fa-4621-a66e-65ed4c94eafd/The-Tryall-Club-Jamaica-1.jpg?format=750w,tryallclub.com,https://www.jsltravelagent.com/clientintake
Four Seasons Anguilla,-63.1452856,18.1777907,Anguilla,Anguilla,"A breathtaking beach retreat set above a pristine shoreline. Open-air restaurants, beach bars, and endless luxury await.",https://images.squarespace-cdn.com/content/v1/6548250d80354a7fbf64348a/5c1a82db-372c-4ec5-b111-511d4664bb80/four-seasons-resort-and.jpg?format=1000w,fourseasons.com/anguilla,https://www.jsltravelagent.com/clientintake
"Secret Bay, Dominica",-61.455588,15.575915,Portsmouth,Dominica,"Frequently ranked as the number one resort in travel magazines, this remote hideaway boasts stunning villas perched above deep blue waters.",https://images.squarespace-cdn.com/content/v1/6548250d80354a7fbf64348a/53a4fb5b-2338-4a77-9f78-72978420fa54/Secret-Bay-Overhead-Edited-2-6-20-Larger.jpeg?format=1000w,secretbay.dm,https://www.jsltravelagent.com/clientintake
"Sugar Beach, St. Lucia",-61.06170626,13.8279173,Soufrire,Saint Lucia,Family-friendly luxury with gorgeous views of the iconic Petite Piton. Enjoy a laid-back restaurant by the water and take in the magic of St. Lucia.,https://images.squarespace-cdn.com/content/v1/6548250d80354a7fbf64348a/0f3dd4c0-da5f-4105-8ad2-1a67a83642b9/01911ea1059c1e03be39a93379c6409e.jpg?format=1000w,viceroyhotelsandresorts.com/sugar-beach,https://www.jsltravelagent.com/clientintake
"Firefly Sunset Resort, Bahamas",-76.9594379,26.5407116,Abaco Islands,Bahamas,"Known for its spring break vibes, this small resort offers golf carts, a close-knit community, and endless fun in the sun.",https://images.squarespace-cdn.com/content/v1/6548250d80354a7fbf64348a/bbc05909-0250-42fa-a953-abf1280fe1ea/a80e801b-5fc5-41fe-b43b-29b8485b53a7-abac_firefly_sunset_resort_aerial2.jpg?format=1000w,fireflysunsetresort.com,https://www.jsltravelagent.com/clientintake
"Oil Nut Bay, British Virgin Islands",-64.330423,18.5028614,Virgin Gorda,British Virgin Islands,"A billionaireÕs paradise with sleek villas and clean, modern designs. Endless views and luxurious perfection await.",https://images.squarespace-cdn.com/content/v1/6548250d80354a7fbf64348a/e7f323b4-5f57-49e6-a650-9091122e6c05/Penthouse-10-1536x1150.jpg?format=750w,oilnutbay.com,https://www.jsltravelagent.com/clientintake
"The Dunmore, Harbour Island",-76.6328641,25.5021844,Harbour Island,Bahamas,"A preppy classic with light blue hues, this Harbour Island spot is the place to see and be seen for dinner.",https://images.squarespace-cdn.com/content/v1/6548250d80354a7fbf64348a/42d2e403-efb5-46b9-b3d4-a93ae0218790/drone.jpg?format=1000w,dunmorebeach.com,https://www.jsltravelagent.com/clientintake
"Jumby Bay Island, Antigua",-61.7605218,17.1540949,Jumby Bay,Antigua and Barbuda,"A private island paradise owned by the Oetker Collection, with pristine beaches, private villas, and world-class service. The ultimate tropical escape.",https://images.squarespace-cdn.com/content/v1/6548250d80354a7fbf64348a/62cdfd3a-bd4f-4181-9419-0fd7d752acde/329_1.jpg?format=750w,jumbybayresort.com,https://www.jsltravelagent.com/clientintake
"Pink Sands, Harbour Island",-76.6315895,25.4873731,Harbour Island,Bahamas,"A beachfront gem with lovely beach bars, golf carts, and charming villas. The perfect place to unwind in paradise.",https://images.squarespace-cdn.com/content/v1/6548250d80354a7fbf64348a/42d2e403-efb5-46b9-b3d4-a93ae0218790/drone.jpg?format=1000w,pinksandsresort.com,https://www.jsltravelagent.com/clientintake
"Bahama House, Harbour Island",-76.6307296,25.5014209,Harbour Island,Bahamas,"A boutique experience resort with personalized concierge service, a private pool, and only a few intimate rooms. Pure relaxation meets luxury.",https://images.squarespace-cdn.com/content/v1/6548250d80354a7fbf64348a/4fe68a7b-9b4f-4d9c-b1a3-f2b0236971d2/ACF_6900-Edit.jpeg?format=1500w,bahamahouse.com,https://www.jsltravelagent.com/clientintake
"Mustique Island, St. Vincent & the Grenadines",-61.17989,12.88681,Saint Vincent,Saint Vincent and the Grenadines,Where billionaires retreat from millionairesÑthis private island offers jaw-dropping luxury and endless serenity.,https://images.squarespace-cdn.com/content/v1/6548250d80354a7fbf64348a/1a9baf54-d8af-48c3-b87e-3f3b7c175513/header-britannia-bay-mustique-MUSTIQUETG0422-bb46afd839dd44eebd4f222d2f7dc7d7.jpg?format=750w,mustique-island.com,https://www.jsltravelagent.com/clientintake
"Montage Los Cabos, Mexico",-109.8164152,22.933863,Los Cabos,Mexico,"A stunning Montage compound right on the golden sand beaches of Los Cabos. Good vibes, impeccable service, and beachside luxury.",https://images.squarespace-cdn.com/content/v1/6548250d80354a7fbf64348a/b8378ce8-9b29-414a-99f0-2a5ae6426626/DJI_0011-2-2048x1534.jpg?format=750w,montagehotels.com/loscabos,https://www.jsltravelagent.com/clientintake
"Paradero Todos Santos, Mexico",-110.196669,23.38961875,Todos Santos,Mexico,A desert retreat built with industrial chic flair. This stylish hideaway is as unique as it is beautiful.,https://images.squarespace-cdn.com/content/v1/6548250d80354a7fbf64348a/1e42bbc3-8a3d-4b2e-84cc-de5cc84052bb/IMG_9694.jpeg?format=750w,paraderohotels.com,https://www.jsltravelagent.com/clientintake
"One&Only Mandarina, Mexico",-105.220306,20.6407176,Riviera Nayarit,Mexico,"A jungle escape with deep blues, hummingbirds, and lush tropical vibes. An otherworldly experience in MexicoÕs natural paradise.",https://images.squarespace-cdn.com/content/v1/6548250d80354a7fbf64348a/9f43775c-02b1-4650-b489-652c531c9d91/OneOnly_Mandarina_Carao_Pool.jpg?format=1000w,oneandonlyresorts.com/mandarina,https://www.jsltravelagent.com/clientintake
"Four Seasons Peninsula Papagayo, Costa Rica",-85.687694,10.611766,Guanacaste,Costa Rica,"A secluded paradise with both black sand and golden beaches. Perfect for zip-lining, exploring, and pure relaxation. Kim Kardashian approved.",https://images.squarespace-cdn.com/content/v1/6548250d80354a7fbf64348a/f0ea4c94-d7ef-4ff7-afc3-71508b543f87/Review-Four-Seasons-Resort-Peninsula-Papagayo-in-C.jpeg?format=1000w,fourseasons.com/costarica,https://www.jsltravelagent.com/clientintake
"Awasi Patagonia, Chile",-72.9254451,-51.0827249,Patagonia,Chile,A health and wellness retreat tucked away in ChileÕs stunning wilderness. Pure tranquility and adventure await.,https://images.squarespace-cdn.com/content/v1/6548250d80354a7fbf64348a/fbc4fcb9-f280-4e81-8b8f-1027176d4493/Patagonia-264-20161027.jpg?format=750w,awasi.com/en/lodges/patagonia,https://www.jsltravelagent.com/clientintake
"Hotel Esencia, Tulum, Mexico",-87.2530344,20.4782003,Tulum,Mexico,A highly ranked boutique hotel in Tulum with an effortless blend of luxury and laid-back beach vibes.,https://images.squarespace-cdn.com/content/v1/6548250d80354a7fbf64348a/dbaa3957-cf5e-4e66-8c43-27917f3b1fe8/175338286.jpg?format=750w,hotelesencia.com,https://www.jsltravelagent.com/clientintake
"Hermitage Bay, Antigua",-61.8953324,17.0863995,Antigua,Antigua and Barbuda,"Luxurious and stunning, this beachside resort offers pristine beauty and total relaxation.",https://images.squarespace-cdn.com/content/v1/6548250d80354a7fbf64348a/39cee2b6-ed11-4dde-a901-5bb0d157bcac/Hermitage-Bay-Hillside-Pool-Suite.jpeg?format=750w,hermitagebay.com,https://www.jsltravelagent.com/clientintake
"Belmond Hotel das Cataratas, Iguazu Falls, Brazil",-54.5830692,-25.5304023,Iguazu Falls,Brazil,"Nestled right by BrazilÕs majestic waterfalls, this hotel is nothing short of breathtaking. A perfect tropical retreat.",https://images.squarespace-cdn.com/content/v1/6548250d80354a7fbf64348a/62e55521-e76d-464c-8bf0-cc9b963941a6/22694837.jpg?format=750w,belmond.com/hotels/south-america/brazil/iguassu-falls,https://www.jsltravelagent.com/clientintake
"Casa San Agustin, Cartagena, Colombia",-75.5495275,10.4255712,Cartagena,Colombia,"A cute boutique hotel in the heart of Cartagena, offering luxury, culture, and a strong sense of safety. Unique and vibrant.",https://images.squarespace-cdn.com/content/v1/6548250d80354a7fbf64348a/01a56274-dabe-4fb2-9fc3-f794eb262401/casa-san-augustin-cartagena-colombia-117111-5.jpeg?format=750w,hotelcasasanagustin.com,https://www.jsltravelagent.com/clientintake
"Ritz Paris, Paris, France",2.3288445,48.8679688,Paris,France,"Known worldwide as one of the most luxurious hotels, the Ritz Paris features gold-studded details and classic Parisian elegance.",https://images.squarespace-cdn.com/content/v1/6548250d80354a7fbf64348a/bf87e69a-2055-47f5-a690-da9a6c9548f0/840-iy5hw8fp44-web4k.jpeg?format=1000w,ritzparis.com,https://www.jsltravelagent.com/clientintake
"Le Bristol, Paris, France",2.315008401,48.87182675,Paris,France,"A favorite among Upper East Siders and celebrities, with an incredible restaurant and luxurious rooms. Parisian opulence at its best.",https://images.squarespace-cdn.com/content/v1/6548250d80354a7fbf64348a/8b7f20a0-bef9-4b0a-a89c-ea5912bcefe3/le-bristol-paris-facade.jpg?format=1000w,oetkercollection.com/hotels/le-bristol-paris,https://www.jsltravelagent.com/clientintake
Solly Hotel Paris (Near Le Marais),2.3483915,48.8534951,Paris,France,"Located in one of the cityÕs cutest neighborhoods, Le Marais, this hotel offers prime shopping and local charm.",https://images.squarespace-cdn.com/content/v1/6548250d80354a7fbf64348a/c32e8b1e-1175-4396-ad51-9b8d53079f51/477335352.jpg?format=750w,sollyhotelparis.com,https://www.jsltravelagent.com/clientintake
"Htel du Cap-Eden-Roc, Antibes, France",7.1262071,43.5812868,Antibes,France,"The epitome of luxury on the French Riviera. Prime luxury, stunning views, and a favorite of the worldÕs elite.",https://images.squarespace-cdn.com/content/v1/6548250d80354a7fbf64348a/1522ce9f-5dc4-4bec-b99c-3804f18c23f4/hotel-du-cap-eden-roc-official2021.jpg?format=1000w,oetkercollection.com/hotels/hotel-du-cap-eden-roc,https://www.jsltravelagent.com/clientintake
"Maybourne Riviera, Roquebrune-Cap-Martin, France",7.443782699,43.7564317,Roquebrune-Cap-Martin,France,My favorite on the South of FranceÑbuilt into a cliff with jaw-dropping views and incredible architecture. Enjoy aesthetic dining and the best cappuccinos around.,https://images.squarespace-cdn.com/content/v1/6548250d80354a7fbf64348a/a106640f-4792-4e5d-a205-e75f0248c306/W50BH23_PROFILE_The+Maybourne+Riviera+hero.jpg?format=750w,maybourneriviera.com,https://www.jsltravelagent.com/clientintake
"Chteau Saint-Martin & Spa, Vence, France",7.1116845,43.7224167,Vence,France,"A massive castle in the French countryside with old-world charm. Perfect for anyone seeking a cool, classic French escape.",https://images.squarespace-cdn.com/content/v1/6548250d80354a7fbf64348a/3adfde0e-3ded-4b0a-9b3d-7644501c4897/Oetker-Collection-Saint-Martin-Exterieur.jpg?format=750w,oetkercollection.com/hotels/chateau-saint-martin,https://www.jsltravelagent.com/clientintake
"Cheval Blanc, Courchevel, France",6.633631646,45.4094995,Courchevel,France,"Of course, itÕs amazing. One of CourchevelÕs finest skiing hotelsÑexpect impeccable service and stunning slopes.",https://images.squarespace-cdn.com/content/v1/6548250d80354a7fbf64348a/ecfbf267-0c66-4c51-979b-cff6ed20c779/unnamed.jpg?format=1000w,chevalblanc.com/en/maison/courchevel,https://www.jsltravelagent.com/clientintake
Hotel de Paris,7.427392,43.738994,Monaco,Monaco,"Flashy, opulent, and dripping in wealth. Expect tourists gawking at the luxury cars and a prime location right near Monte CarloÕs shopping mecca.",https://images.squarespace-cdn.com/content/v1/6548250d80354a7fbf64348a/e40fae7f-09c8-4441-bcb5-2fe52b6c1282/492010980.jpg?format=750w,monte-carlo-beach.com/en/hotel-de-paris,https://www.jsltravelagent.com/clientintake
"Eden Rock Villa Rental, St.Barths",-62.835982,17.903063,St. Barths,Saint Barthlemy,"The ultimate stay in St. Barths. Get all the privacy of your own villa, plus breakfast delivered and full access to Eden Rock's luxurious amenities.",https://images.squarespace-cdn.com/content/v1/6548250d80354a7fbf64348a/f8dc1fb3-90c1-4a5d-915e-b01201d62b27/Villa_Ixfalia_0796-1.jpg?format=750w,edenrockvillarental.com,https://www.jsltravelagent.com/clientintake
"Four Seasons Megeve, France",6.64265,45.847168,Megve,France,"A massive Four Seasons compound, perfect for skiing in the French Alps. An elegant retreat with all the luxury touches.",https://images.squarespace-cdn.com/content/v1/6548250d80354a7fbf64348a/197664d7-0684-4a45-88f4-30d5f67e7aad/Four-Seasons-Hotel-Megeve-Exterior.jpeg?format=1000w,fourseasons.com/megeve,https://www.jsltravelagent.com/clientintake
"Six Senses Courchevel, France",6.6349892,45.4140984,Courchevel,France,Sustainable luxury meets high-end skiing. The ultimate winter retreat for the eco-conscious traveler.,https://images.squarespace-cdn.com/content/v1/6548250d80354a7fbf64348a/3b88fa63-7e48-4ea5-85d1-51615ed529fe/six-senses-residences.jpg?format=1000w,sixsenses.com/en/resorts/courchevel,https://www.jsltravelagent.com/clientintake
"LÕApoge Courchevel, France",6.6349892,45.4140984,Courchevel,France,"A bold, luxurious resort that elevates both skiing and opulence to new heights. Ski-in, ski-out perfection.",https://images.squarespace-cdn.com/content/v1/6548250d80354a7fbf64348a/5310d60f-ec58-4696-afcd-f478f9e706ef/lapogee-courchevel-exterior-7.jpg?format=1000w,lapogeecourchevel.com,https://www.jsltravelagent.com/clientintake
"Htel Mont-Blanc, Chamonix, France",6.868110123,45.92324275,Chamonix,France,"Similar to LÕApogeÑluxury skiing with stunning views and top-notch amenities. Ski-in, ski-out in the heart of the Alps.",https://images.squarespace-cdn.com/content/v1/6548250d80354a7fbf64348a/980796ba-17e9-49be-81f3-6319d2b193ad/images.jpeg?format=750w,hotelmontblancchamonix.com,https://www.jsltravelagent.com/clientintake
"Coeur de Megve, Megve, France",6.6188963,45.8574831,Megve,France,"A charming boutique hotel in an equally charming town. A quaint, romantic escape in the French Alps.",https://images.squarespace-cdn.com/content/v1/6548250d80354a7fbf64348a/0dab0d6b-467c-4bce-a1e3-ffb9795697fe/hotel-balconies.jpg?format=750w,hotelmontblancmegeve.com,https://www.jsltravelagent.com/clientintake
"Belmond La Residencia, Mallorca",2.7386651,39.5255023,Mallorca,Spain,"Flowery, Spanish charm with stunning old-world architecture. A perfect spot for weddings and romantic getaways.",https://images.squarespace-cdn.com/content/v1/6548250d80354a7fbf64348a/8e92582d-8e4b-42e7-82e9-15868724de79/415267074.jpg?format=750w,belmond.com/hotels/europe/spain/mallorca,https://www.jsltravelagent.com/clientintake
"CaÕs Xorc, Mallorca",2.6581155,39.5944885,Mallorca,Spain,"Small and romanticÑdonÕt miss dinner here, even if youÕre not staying. The restaurant is a must-visit.",https://images.squarespace-cdn.com/content/v1/6548250d80354a7fbf64348a/e4714e85-d946-48d6-b603-192bfd4e5c17/ca-s-xorc-luxury-retreat.jpg?format=750w,casxorc.com,https://www.jsltravelagent.com/clientintake
"Nobu Ibiza, Spain",1.456685424,38.91833005,Ibiza,Spain,"Bold, Euro vibes with insane luxury and insane prices. An Ibiza favorite for those who want to splurge.",https://images.squarespace-cdn.com/content/v1/6548250d80354a7fbf64348a/5a299013-d5f0-4ece-9eea-6481d080a833/w3840.jpeg?format=750w,nobuhotels.com/ibiza,https://www.jsltravelagent.com/clientintake
"Hacienda Na Xamena, Ibiza, Spain",1.4197463,38.9743901,Ibiza,Spain,Built into the cliffs with incredible views and comfortable rooms. Pure Ibiza magic.,https://images.squarespace-cdn.com/content/v1/6548250d80354a7fbf64348a/d4e24ce7-bc34-4277-a244-4c695340b1ed/b429701a-59baacf3.jpg?format=1000w,haciendanaxamena-ibiza.com,https://www.jsltravelagent.com/clientintake
"W Barcelona, Spain",2.190115251,41.3688328,Barcelona,Spain,"Right on the beach and perfect for party vibes. BarcelonaÕs go-to for sleek, modern luxury.",https://images.squarespace-cdn.com/content/v1/6548250d80354a7fbf64348a/4be38f64-17bd-441e-aefd-d78c2d13d3d0/004163-01-WBarcelona-exterior-W+Barcelona.jpg?format=1000w,whotels.com/barcelona,https://www.jsltravelagent.com/clientintake
The Standard Ibiza,1.434060669,38.90990682,Ibiza,Portugal,A super sleek and modern Ibiza escapeÑchic and stylish in every way.,https://images.squarespace-cdn.com/content/v1/6548250d80354a7fbf64348a/a3ebf111-1a7b-4713-9ffc-e64947c02e89/457086387.jpg?format=750w,standardhotels.com/ibiza,https://www.jsltravelagent.com/clientintake
"Sublime Comporta, Portugal",-8.7170927,38.2958903,Comporta,Portugal,"Mountains, beach, and everything in between. Wooden villas with rustic charm and a modern edge.",https://images.squarespace-cdn.com/content/v1/6548250d80354a7fbf64348a/4953f333-28b2-49db-8d9b-2492ca2918ee/sublime-comporta-aerial-view.jpeg?format=750w,sublimecomporta.pt,https://www.jsltravelagent.com/clientintake
"Six Senses Douro Valley, Portugal",-7.811469803,41.14381425,Lamego,Italy,"Incredible views, amazing culture, and serene luxury. A true gem in the heart of PortugalÕs wine country.",https://images.squarespace-cdn.com/content/v1/6548250d80354a7fbf64348a/96c5e199-08da-4882-b5dd-922b9fedace4/Six-Senses-Douro-Valley.jpg?format=750w,sixsenses.com/en/resorts/douro-valley,https://www.jsltravelagent.com/clientintake
"Le Sirenuse, Positano, Italy",14.4876265,40.6287732,Positano,Italy,A top honeymoon destination with breathtaking views and a famous restaurant. Gorgeous from every angle.,https://images.squarespace-cdn.com/content/v1/6548250d80354a7fbf64348a/7c3d5f47-d252-44a0-97c6-8b4a08af8721/welcome-to-le-sirenuse.jpg?format=750w,sirenuse.it,https://www.jsltravelagent.com/clientintake
"Villa dÕEste, Lake Como, Italy",9.264881,45.9917589,Lake Como,Italy,"A true architectural masterpiece on Lake Como. Ultra-luxe, ultra-expensive, and totally worth it.",https://images.squarespace-cdn.com/content/v1/6548250d80354a7fbf64348a/35de3fa1-5f0d-4fc9-b08d-475080935133/Villa-dEste_Drone-View.jpg?format=750w,villadeste.com,https://www.jsltravelagent.com/clientintake
"Il Sereno, Lake Como, Italy",9.264881,45.9917589,Lake Como,Italy,A top-rated Lake Como hotel with stunning modern architecture. Exclusivity and luxury all in one.,https://images.squarespace-cdn.com/content/v1/6548250d80354a7fbf64348a/e6b87a70-0aa7-42d5-afd0-efee2a72984c/lw2188_110960327_720x450.jpg?format=1000w,ilsereno.com,https://www.jsltravelagent.com/clientintake
"Calilo, Ios, Greece",25.3795464,36.6842701,Ios,Greece,"Unique in every way, this Greek escape offers stunning pools and endless charm.",https://images.squarespace-cdn.com/content/v1/6548250d80354a7fbf64348a/9b335614-d110-4469-aa9d-7d8d35fbca4b/download.jpeg?format=750w,calilo.com,https://www.jsltravelagent.com/clientintake
"Istoria, Santorini, Greece",25.4566637,36.4071112,Santorini,Greece,"A boutique Santorini hotel with all the charm youÕd expect from the iconic island. Classic, chic, and beautiful.",https://images.squarespace-cdn.com/content/v1/6548250d80354a7fbf64348a/ab48df34-9afe-4ff1-812f-ae0c1ac9eb67/149278368.jpg?format=750w,istoriahotel.com,https://www.jsltravelagent.com/clientintake
"Katikies Chromata, Santorini, Greece",25.4566637,36.4071112,Santorini,Greece,A quintessential Santorini hotel with stunning views and all the islandÕs classic charm. Pure perfection.,https://images.squarespace-cdn.com/content/v1/6548250d80354a7fbf64348a/d7b51001-9793-482b-8fc8-485cc0378a8a/katikies-chromata-hotel-santorini_20.jpeg?format=750w,katikies.com/chromata-santorini,https://www.jsltravelagent.com/clientintake
"Omnia, Zermatt, Switzerland",7.7453631,46.0205215,Zermatt,Switzerland,"Ski-in, ski-out luxury at its finest. This sleek mountain retreat lights up at night for a magical Alpine experience.",https://images.squarespace-cdn.com/content/v1/6548250d80354a7fbf64348a/544b447a-750b-4fc3-84d5-e458322d55d2/luxury-ski-hotel-zermatt-the-omnia-oxford-ski-hotel-outside-view-1.jpg?format=1000w,omnia.ch,https://www.jsltravelagent.com/clientintake
"Whitepod, Crans-Montana, Switzerland",7.5264358,46.3304899,Crans-Montana,Switzerland,"Live in a pod on the mountainÑtotally ski-in, ski-out, and a one-of-a-kind experience. Take a snow cat up for ultimate adventure.",https://images.squarespace-cdn.com/content/v1/6548250d80354a7fbf64348a/241327b7-18ad-49a2-8f12-610146ebac17/WhitePod-Switzerland-8.jpg?format=1000w,whitepod.com,https://www.jsltravelagent.com/clientintake
"The Woodward, Geneva, Switzerland",6.1466014,46.2017559,Geneva,Switzerland,"A classy, preppy, and elegant stay in Geneva. Sophistication with stunning lake views.",https://images.squarespace-cdn.com/content/v1/6548250d80354a7fbf64348a/2ca3099d-c75b-45f9-b415-265f9f8cb361/The_Woodward_facade_1968-the%2520woodward-nov21-pr.jpeg?format=1000w,thewoodward.ch,https://www.jsltravelagent.com/clientintake
"Beau-Rivage Palace, Lausanne, Switzerland",6.630403138,46.5079299,Lausanne,Switzerland,"A grand, white-and-gold Swiss palace right on the water. Old-fashioned luxury at its finest.",https://images.squarespace-cdn.com/content/v1/6548250d80354a7fbf64348a/c2c8db68-729e-430e-aa39-259ea89b1221/beau-rivage-palace.jpg?format=750w,brp.ch,https://www.jsltravelagent.com/clientintake
Hotel La Palma,14.2280874,40.5487748,Capri,Italy,An amazing hotel in Capri with an incredible beach club. Ultimate luxury on the Italian island.,https://images.squarespace-cdn.com/content/v1/6548250d80354a7fbf64348a/a6e09be7-2313-4db7-beed-4dd9660af651/beach-club-new-picture.jpg?format=750w,oetkercollection.com/hotels/hotel-la-palma,https://www.jsltravelagent.com/clientintake
"Minthis, Cyprus",32.5004615,34.8184703,Paphos,Cyprus,A truly unique resort in Cyprus with stunning scenery and luxury that stands out.,https://images.squarespace-cdn.com/content/v1/6548250d80354a7fbf64348a/ef1c8cb3-33a4-4978-8579-e976be0c49bc/minthis-hills-woods-baggot_3.jpg?format=1000w,minthisresort.com,https://www.jsltravelagent.com/clientintake
"Deplar Farm, Iceland",-18.9403834,65.9441896,îlafsfjr?ur,Iceland,An experiential resort where LeBron James and Bill Gates have stayed. Immerse yourself in Icelandic culture and unforgettable experiences.,https://images.squarespace-cdn.com/content/v1/6548250d80354a7fbf64348a/0bd9790d-9cee-4fba-a2ee-5fd2085b7076/deplar-farm-summer-hero.jpg?format=750w,elevenexperience.com/deplar-farm,https://www.jsltravelagent.com/clientintake
"Park Hyatt Kyoto, Japan",135.7810481,34.998989,Kyoto,Japan,A luxurious stay in the heart of JapanÑperfect for those who love elegance and tradition.,https://images.squarespace-cdn.com/content/v1/6548250d80354a7fbf64348a/54e6c52e-afb7-4c94-b745-5b46fa551095/233115536.jpg?format=750w,park.hyatt.com/en/hyatt-hotels/japan/park-hyatt-kyoto,https://www.jsltravelagent.com/clientintake
"Bulgari Tokyo, Japan",139.7691006,35.67891,Tokyo,Japan,"From the world-renowned Bvlgari brand, this luxurious hotel in Japan is the epitome of class and style.",https://images.squarespace-cdn.com/content/v1/6548250d80354a7fbf64348a/c5ded8d2-820f-4b97-a581-64f86f0f3bda/10_BHTokyo_Terrace_02_WEB-Bulgari+Tokyo-mar23-pr.jpeg?format=1500w,bulgarihotels.com/en_US/tokyo,https://www.jsltravelagent.com/clientintake
"The Upper House, Hong Kong",114.1663856,22.2775266,Hong Kong,China,"A chic, cool hotel in Hong Kong that offers a modern and stylish vibe.",https://images.squarespace-cdn.com/content/v1/6548250d80354a7fbf64348a/01f41025-e452-41e9-981f-56d96aef4c87/the-upper-house.jpg?format=750w,upperhouse.com/en,https://www.jsltravelagent.com/clientintake
"Mandarin Oriental, Hong Kong",114.1593965,22.2818858,Hong Kong,China,"The classic luxury stay in Hong Kong, renowned for its history and impeccable service.",https://images.squarespace-cdn.com/content/v1/6548250d80354a7fbf64348a/0c3b1747-c9c4-40d2-b192-7a7d28cbc880/Mandarin+Oriental+Hong+Kong_hong-kong-restaurant-21-the-aubrey-main-bar-drawing-room.jpeg?format=1000w,mandarinoriental.com/hong-kong,https://www.jsltravelagent.com/clientintake
Raffles Singapore,103.8546412,1.2946815,Singapore,Singapore,"The landmark hotel of Singapore, known for its luxurious service and timeless elegance.",https://images.squarespace-cdn.com/content/v1/6548250d80354a7fbf64348a/3d483322-0fd0-4b76-ba32-1a02620d3faf/a5e1-1.jpeg?format=1500w,raffles.com/singapore,https://www.jsltravelagent.com/clientintake
"Marina Bay Sands, Singapore",103.8607226,1.2836965,Singapore,Singapore,"An iconic mall, hotel, and casino complex in Singapore, famous for its sky-high infinity pool and larger-than-life amenities.",https://images.squarespace-cdn.com/content/v1/6548250d80354a7fbf64348a/0d798888-bc36-47e3-b280-a130a46c9670/Marina_Bay_Sands_in_the_evening_-_20101120.jpg?format=750w,marinabaysands.com,https://www.jsltravelagent.com/clientintake
"Parkroyal Collection Pickering, Singapore",103.8462571,1.28565655,Singapore,Singapore,A massive eco-resort with a grey exterior overgrown with greenery. Sustainable luxury with a stunning pool.,https://images.squarespace-cdn.com/content/v1/6548250d80354a7fbf64348a/f0706514-099b-46a4-8546-ed3192a6b297/318936829.jpg?format=750w,panpacific.com/en/hotels-and-resorts/pr-collection-pickering,https://www.jsltravelagent.com/clientintake
"Four Seasons Bora Bora, French Polynesia",-151.707308,-16.4726011,Bora Bora,French Polynesia,An amazing resort in Bora Bora with iconic overwater bungalows. Ultimate island luxury.,https://images.squarespace-cdn.com/content/v1/6548250d80354a7fbf64348a/b937325c-b8f7-44ff-a222-38d4e9aab564/20220306_PYF_Bora-Bora_Four-Seasons_160-1024x683.jpg?format=750w,fourseasons.com/borabora,https://www.jsltravelagent.com/clientintake
"Cap Juluca, Anguilla",-63.14160935,18.16464715,Maundays Bay,Anguilla,"Another Anguilla gem, offering pristine beaches and unparalleled service.",https://images.squarespace-cdn.com/content/v1/6548250d80354a7fbf64348a/2c6c10e0-6eb0-471c-a19d-0e00c45a325c/cap-ext05.jpeg?format=1500w,belmond.com/hotels/caribbean/anguilla/cap-juluca,https://www.jsltravelagent.com/clientintake
"Sirru Fen Fushi, Maldives",73.01237481,6.28708325,Noonu Atoll,Maldives,A private island resort in the Maldives offering excellent rates for a slice of paradise.,https://images.squarespace-cdn.com/content/v1/6548250d80354a7fbf64348a/584158be-cd5c-46a8-b7eb-c85c923497e2/554759508.jpg?format=750w,fairmont.com/maldives/sirru-fen-fushi,https://www.jsltravelagent.com/clientintake
"Soneva Fushi, Maldives",73.08285762,5.11167285,Baa Atoll,Maldives,"The highest-rated, most luxurious hotel in the Maldives. Pure indulgence in every way.",https://images.squarespace-cdn.com/content/v1/6548250d80354a7fbf64348a/1cc84037-76f6-4d34-aa6b-91d94e55c0f4/CE812664EB6BDE8CE4DB26772DF99F1C-1440x810.jpg?format=1000w,soneva.com/soneva-fushi,https://www.jsltravelagent.com/clientintake
"Six Senses Kanuhura, Maldives",73.5065318,5.53250195,Kanuhura,Maldives,An eco-luxury paradise thatÕs part of the renowned Six Senses family. Sustainable bliss in the Maldives.,https://images.squarespace-cdn.com/content/v1/6548250d80354a7fbf64348a/cda384c4-a6b2-4f3c-a6f6-26bd2f2175f3/462447939.jpg?format=1000w,sixsenses.com/en/resorts/kanuhura,https://www.jsltravelagent.com/clientintake
Four Seasons Resort Maldives at Landaa Giraavaru,73.11207716,5.28636315,Landaa Giraavaru,Maldives,A luxurious Four Seasons stay in the MaldivesÑclassic luxury meets tropical paradise.,https://images.squarespace-cdn.com/content/v1/6548250d80354a7fbf64348a/9a52b313-7079-4f45-a16b-3f6fdd261df8/217063078.jpg?format=750w,fourseasons.com/maldiveslg,https://www.jsltravelagent.com/clientintake
"Six Senses Zil Pasyon, Seychelles",55.8747462,-4.3276273,Flicit Island,Seychelles,"Another incredible eco-luxury resort from Six Senses, offering unparalleled beauty and relaxation.",https://images.squarespace-cdn.com/content/v1/6548250d80354a7fbf64348a/2ed0e2c3-6f3a-4064-b775-b169869a2859/pasyon_pool_villas_aerial_6762-original.jpg?format=750w,sixsenses.com/en/resorts/zil-pasyon,https://www.jsltravelagent.com/clientintake
"One&Only Le Saint Gran, Mauritius",57.7349813,-20.1682145,Belle Mare,Mauritius,"A unique and stunning destination in Mauritius, offering the best of island luxury.",https://images.squarespace-cdn.com/content/v1/6548250d80354a7fbf64348a/4bb0ac90-9f68-41ef-8b65-090b03cdeff2/478787627.jpg?format=750w,oneandonlyresorts.com/le-saint-geran,https://www.jsltravelagent.com/clientintake
Four Seasons Mauritius at Anahita,57.790892,-20.2843773,Beau Champ,Mauritius,"Another incredible Four Seasons resort, this time in Mauritius, offering world-class service and serene beaches.",https://images.squarespace-cdn.com/content/v1/6548250d80354a7fbf64348a/2383f1d0-1ae5-499d-9b70-2a5816f469d3/aerial-view-of-quiet.jpg?format=750w,fourseasons.com/mauritius,https://www.jsltravelagent.com/clientintake
"Taj Exotica Havelock Island, India",92.9956211,11.9651954,Andaman Islands,India,A cool beachside resort with a friendly staff and stunning beachfront location.,https://images.squarespace-cdn.com/content/v1/6548250d80354a7fbf64348a/c14e0371-36a4-4691-ba39-2b7567ae1637/177423-01-Aerial+View+of+the+Resort+with+beach-Taj+Exotica+Andamans.jpg?format=1000w,tajhotels.com/en-in/taj/exotica-havelock,https://www.jsltravelagent.com/clientintake
"One&Only The Palm, Dubai, UAE",55.13344301,25.09926935,Dubai,United Arab Emirates,"Opulent luxury on the famous Palm Jumeirah, offering world-class service and stunning views.",https://images.squarespace-cdn.com/content/v1/6548250d80354a7fbf64348a/093420e5-5e67-4b87-bf20-a8d5c07e29f4/OOTP-9.png?format=750w,oneandonlyresorts.com/the-palm-dubai,https://www.jsltravelagent.com/clientintake
"Burj Al Arab, Dubai, UAE",55.18539673,25.1413271,Dubai,United Arab Emirates,"The landmark hotel of DubaiÑthe only seven-star hotel in the world, known for its unmatched luxury.",https://images.squarespace-cdn.com/content/v1/6548250d80354a7fbf64348a/ea7ceb77-e97d-4e16-b354-05f8f11c9ac3/457389536.jpg?format=750w,jumeirah.com/en/stay/dubai/burj-al-arab,https://www.jsltravelagent.com/clientintake
"Six Senses Shaharut, Israel",35.006,29.9158,Negev,Israel,"A luxurious desert resort in Israel, offering breathtaking views and unmatched experiences.",https://images.squarespace-cdn.com/content/v1/6548250d80354a7fbf64348a/0008c7c3-511f-4034-8268-e3f20a26fa32/247582271.jpg?format=750w,sixsenses.com/en/resorts/shaharut,https://www.jsltravelagent.com/clientintake
"Wadi Rum Bubble Luxotel, Jordan",35.483765,29.719984,Wadi Rum,Jordan,Glamping bubbles in the Jordanian desertÑa once-in-a-lifetime experience.,https://images.squarespace-cdn.com/content/v1/6548250d80354a7fbf64348a/45c5a74d-dd61-4cb3-b30f-a5fccc968923/581550af.jpeg?format=1500w,https://wadirumbubble.luxotel.com/,https://www.jsltravelagent.com/clientintake
"Royal Mansour, Marrakech, Morocco",-7.9986457,31.6257236,Marrakech,Morocco,"A luxurious, money-no-object resort that defines opulence in every way.",https://images.squarespace-cdn.com/content/v1/6548250d80354a7fbf64348a/3316be4e-f453-4ec9-897f-b5d51b9979c9/Royal+Mansour+Lobby.jpg?format=1000w,royalmansour.com,https://www.jsltravelagent.com/clientintake
"Aman Marrakech, Morocco",-8.0145988,31.6584728,Marrakech,Morocco,"Private villas, beautiful pools, and ultimate relaxation in this ultra-luxury Moroccan escape.",https://images.squarespace-cdn.com/content/v1/6548250d80354a7fbf64348a/0c6e8021-325b-48d1-b8a3-c8c368e4f387/Amanjena_Accommodation_Al_Hamra_Maison_1.jpeg?format=1000w,aman.com/resorts/amanjena,https://www.jsltravelagent.com/clientintake
"La Mamounia, Marrakech, Morocco",-7.997441922,31.62138285,Marrakech,Morocco,"Infamous for its history (and Anna DelveyÕs scandal), this Moroccan resort offers luxury and rich cultural experiences.",https://images.squarespace-cdn.com/content/v1/6548250d80354a7fbf64348a/357a9ca7-e809-4940-bf22-03c5400ad9dd/17174202-la-mamounia-hotel_cover_1500x1001.jpeg?format=1000w,mamounia.com,https://www.jsltravelagent.com/clientintake
"Londolozi Tree Camp, Sabi Sands, South Africa",31.557203,-24.6904495,Sabi Sands,South Africa,An African safari resort that blends luxury with adventure. A bucket-list stay.,https://images.squarespace-cdn.com/content/v1/6548250d80354a7fbf64348a/7fa3ba68-4f84-4d39-805d-49cb32559a44/londo_treecamp13-scaled.jpg?format=750w,londolozi.com/en/camps/tree-camp,https://www.jsltravelagent.com/clientintake
"Ulusaba Private Game Reserve, Sabi Sands, South Africa",31.557203,-24.6904495,Sabi Sands,South Africa,Another top-tier African safari resort with incredible wildlife experiences and luxury accommodations.,https://images.squarespace-cdn.com/content/v1/6548250d80354a7fbf64348a/31095243-31e3-408e-b4e5-69e61e8de32a/Exterior-UlusabaPrivateGameReserve-SouthAfrica-CRHotel.jpeg?format=750w,ulusaba.virgin.com,https://www.jsltravelagent.com/clientintake
"Four Seasons Safari Lodge Serengeti, Tanzania",34.7691696,-1.9600259,Serengeti,Tanzania,A peaceful Four Seasons resort set in the heart of the Serengeti. Expect incredible wildlife and serene luxury.,https://images.squarespace-cdn.com/content/v1/6548250d80354a7fbf64348a/6c49f130-74b5-4092-b360-867addb9df0d/the-infinity-pool-overlooking.jpg?format=750w,fourseasons.com/serengeti,https://www.jsltravelagent.com/clientintake
"&Beyond Ngorongoro Crater Lodge, Tanzania",35.49808966,-3.2394545,Ngorongoro,Tanzania,A luxurious safari lodge in Tanzania that offers an unforgettable African adventure.,https://images.squarespace-cdn.com/content/v1/6548250d80354a7fbf64348a/9f8b5f6a-6c93-495d-99c4-ba000b3355a2/handcrafted-banana-tached-dining-area-at-andbeyond-ngorongoro-crater-lodge-on-a-luxury-tanznia-safari.jpg?format=1000w,andbeyond.com/our-lodges/ngorongoro-crater-lodge,https://www.jsltravelagent.com/clientintake
"One&Only GorillaÕs Nest, Rwanda",29.4928212,-1.4659685,Volcanoes National Park,Rwanda,"A once-in-a-lifetime resort in Rwanda, known for its outlandish luxury and proximity to gorilla trekking.",https://images.squarespace-cdn.com/content/v1/6548250d80354a7fbf64348a/cdd10a96-a44a-4c19-ac08-92c52b9f5ed3/oogn-hero-1-pathway-2020.jpeg?format=750w,oneandonlyresorts.com/gorillas-nest,https://www.jsltravelagent.com/clientintake
"AYA Niseko, Japan",140.7028337,42.857653,Niseko,Japan,An incredible ski resort in Japan that offers top-notch winter experiences.,https://images.squarespace-cdn.com/content/v1/6548250d80354a7fbf64348a/001db7d3-f68a-4ed9-a6a4-6785211187b5/Exterior_7.jpg?format=750w,ayaniseko.com,https://www.jsltravelagent.com/clientintake
"Hotel Xcaret, Mexico",-87.11009181,20.58933885,Playa del Carmen,Mexico,"The best all-inclusive resort in Mexico, offering endless activities and luxury accommodations.",https://images.squarespace-cdn.com/content/v1/6548250d80354a7fbf64348a/d5ff2163-0609-4464-bd53-3da4e7196d7e/img_4434.jpeg?format=750w,hotelxcaret.com,https://www.jsltravelagent.com/clientintake
"Four Seasons Palm Beach, Florida",-80.03773891,26.6187102,Palm Beach,USA,"An incredible Four Seasons resort close to Mar-a-Lago, offering unmatched hospitality.",https://images.squarespace-cdn.com/content/v1/6548250d80354a7fbf64348a/432c9ea0-06d5-4106-a62f-5f7d21256552/pbf-aerial-view-two-oceanfront.jpg?format=750w,fourseasons.com/palmbeach,https://www.jsltravelagent.com/clientintake
Tivoli Carvoeiro Algarve Resort,Ê-8.460058,37.094041,Carvoeiro,Portugal,Set on the cliffs of the Algarve with stunning beach views and enormous bathtubs. True coastal luxury.,https://images.squarespace-cdn.com/content/v1/6548250d80354a7fbf64348a/10d9dec5-da7f-4e81-8dd2-f42ef23a688b/tivoli_carvoeiro_exterior_1060_x-2-%281%29.jpeg?format=750w,tivolihotels.com/en/tivoli-carvoeiro,https://www.jsltravelagent.com/clientintake
Six Senses Grenada,-61.674489,12.021429,St. George's,Grenada,A remote eco-luxury resort with a focus on sustainability. Incredibly opulent rooms and plenty to do.,https://images.squarespace-cdn.com/content/v1/6548250d80354a7fbf64348a/8da96f6f-3cd2-4e5f-8c44-da50bbdea3f7/resort-sunset.jpg?format=1000w,sixsenses.com/en/resorts/grenada,https://www.jsltravelagent.com/clientintake
"The Colony Hotel, Palm Beach",-80.035312,26.700052,Palm Beach,USA,"A cute boutique hotel in Palm Beach with a signature pink exterior. A charming, intimate stay.",https://images.squarespace-cdn.com/content/v1/6548250d80354a7fbf64348a/c7fd9596-4d76-41a2-8805-a7d89fd36ee0/the-colony-hotel.jpg?format=750w,thecolonypalmbeach.com,https://www.jsltravelagent.com/clientintake
,,,,,,,,
